{"type": "FeatureCollection", "features": [ {"type": "Feature", "properties": {"norad_id": 57401, "name": "TIANMU-1 09", "group": "weather", "lat": -26.018270375783377, "lon": -135.09289627423055, "alt_km": 490.70529282669213, "timestamp": "2025-12-25T14:48:24.448853+00:00", "meta": {"OBJECT_NAME": "TIANMU-1 09", "OBJECT_ID": "2023-101C", "EPOCH": "2025-12-25T06:03:02.932992", "MEAN_MOTION": 15.28264318, "ECCENTRICITY": 0.00062088, "INCLINATION": 97.2802, "RA_OF_ASC_NODE": 48.1283, "ARG_OF_PERICENTER": 49.3515, "MEAN_ANOMALY": 310.8264, "EPHEMERIS_TYPE": 0, "CLASSIFICATION_TYPE": "U", "NORAD_CAT_ID": 57401, "ELEMENT_SET_NO": 999, "REV_AT_EPOCH": 13506, "BSTAR": 0.00029096017, "MEAN_MOTION_DOT": 7.944e-05, "MEAN_MOTION_DDOT": 0}, "tle": {"line1": "1 57401U 23101C   25359.25211728  .00007944  00000+0  29096-3 0  9998", "line2": "2 57401  97.2802  48.1283 0006208  49.3515 310.8264 15.28264318135065"}}, "geometry": {"type": "Point", "coordinates": [-135.09289627423055, -26.018270375783377]}}, {"type": "Feature", "properties": {"norad_id": 57402, "name": "TIANMU-1 10", "group": "weather", "lat": 17.337740200768753, "lon": 47.05854482405448, "alt_km": 476.80144793132695, "timestamp": "2025-12-25T14:48:24.448864+00:00", "meta": {"OBJECT_NAME": "TIANMU-1 10", "OBJECT_ID": "2023-101D", "EPOCH": "2025-12-25T06:52:24.513312", "MEAN_MOTION": 15.28256593, "ECCENTRICITY": 0.00079128, "INCLINATION": 97.2882, "RA_OF_ASC_NODE": 49.025, "ARG_OF_PERICENTER": 46.708, "MEAN_ANOMALY": 313.4818, "EPHEMERIS_TYPE": 0, "CLASSIFICATION_TYPE": "U", "NORAD_CAT_ID": 57402, "ELEMENT_SET_NO": 999, "REV_AT_EPOCH": 13506, "BSTAR": 0.00030177812, "MEAN_MOTION_DOT": 8.243e-05, "MEAN_MOTION_DDOT": 0}, "tle": {"line1": "1 57402U 23101D   25359.28639483  .00008243  00000+0  30178-3 0  9990", "line2": "2 57402  97.2882  49.0250 0007912  46.7080 313.4818 15.28256593135069"}}, "geometry": {"type": "Point", "coordinates": [47.05854482405448, 17.337740200768753]}}, {"type": "Feature", "properties": {"norad_id": 57490, "name": "FENGYUN 3F", "group": "weather", "lat": -52.57234072049069, "lon": 79.25179758217432, "alt_km": 833.2273514928211, "timestamp": "2025-12-25T14:48:24.448874+00:00", "meta": {"OBJECT_NAME": "FENGYUN 3F", "OBJECT_ID": "2023-111A", "EPOCH": "2025-12-25T06:36:07.415712", "MEAN_MOTION": 14.19896787, "ECCENTRICITY": 8.35e-05, "INCLINATION": 98.7067, "RA_OF_ASC_NODE": 67.3653, "ARG_OF_PERICENTER": 117.6726, "MEAN_ANOMALY": 242.4535, "EPHEMERIS_TYPE": 0, "CLASSIFICATION_TYPE": "U", "NORAD_CAT_ID": 57490, "ELEMENT_SET_NO": 999, "REV_AT_EPOCH": 12418, "BSTAR": 5.6354896e-05, "MEAN_MOTION_DOT": 7.6e-07, "MEAN_MOTION_DDOT": 0}, "tle": {"line1": "1 57490U 23111A   25359.27508583  .00000076  00000+0  56355-4 0  9995", "line2": "2 57490  98.7067  67.3653 0000835 117.6726 242.4535 14.19896787124181"}}, "geometry": {"type": "Point", "coordinates": [79.25179758217432, -52.57234072049069]}}, {"type": "Feature", "properties": {"norad_id": 58584, "name": "ARKTIKA-M 2", "group": "weather", "lat": 57.60577556077257, "lon": -59.271068385856815, "alt_km": 32790.13848209516, "timestamp": "2025-12-25T14:48:24.448888+00:00", "meta": {"OBJECT_NAME": "ARKTIKA-M 2", "OBJECT_ID": "2023-198A", "EPOCH": "2025-12-24T19:00:30.507264", "MEAN_MOTION": 2.00602347, "ECCENTRICITY": 0.6865959, "INCLINATION": 63.2255, "RA_OF_ASC_NODE": 173.58, "ARG_OF_PERICENTER": 268.0557, "MEAN_ANOMALY": 18.8416, "EPHEMERIS_TYPE": 0, "CLASSIFICATION_TYPE": "U", "NORAD_CAT_ID": 58584, "ELEMENT_SET_NO": 999, "REV_AT_EPOCH": 1482, "BSTAR": 0, "MEAN_MOTION_DOT": 2.24e-06, "MEAN_MOTION_DDOT": 0}, "tle": {"line1": "1 58584U 23198A   25358.79201976  .00000224  00000+0  00000+0 0  9993", "line2": "2 58584  63.2255 173.5800 6865959 268.0557  18.8416  2.00602347 14827"}}, "geometry": {"type": "Point", "coordinates": [-59.271068385856815, 57.60577556077257]}}, {"type": "Feature", "properties": {"norad_id": 58645, "name": "TIANMU-1 11", "group": "weather", "lat": 34.81349144129062, "lon": 13.857337047928935, "alt_km": 493.2867695881041, "timestamp": "2025-12-25T14:48:24.448899+00:00", "meta": {"OBJECT_NAME": "TIANMU-1 11", "OBJECT_ID": "2023-205A", "EPOCH": "2025-12-25T06:46:40.166976", "MEAN_MOTION": 15.2474729, "ECCENTRICITY": 0.00075676, "INCLINATION": 97.3597, "RA_OF_ASC_NODE": 18.6852, "ARG_OF_PERICENTER": 256.5867, "MEAN_ANOMALY": 103.4527, "EPHEMERIS_TYPE": 0, "CLASSIFICATION_TYPE": "U", "NORAD_CAT_ID": 58645, "ELEMENT_SET_NO": 999, "REV_AT_EPOCH": 11100, "BSTAR": 0.00027264278, "MEAN_MOTION_DOT": 6.686e-05, "MEAN_MOTION_DDOT": 0}, "tle": {"line1": "1 58645U 23205A   25359.28240934  .00006686  00000+0  27264-3 0  9995", "line2": "2 58645  97.3597  18.6852 0007567 256.5867 103.4527 15.24747290111000"}}, "geometry": {"type": "Point", "coordinates": [13.857337047928935, 34.81349144129062]}}, {"type": "Feature", "properties": {"norad_id": 58646, "name": "TIANMU-1 12", "group": "weather", "lat": -61.25935685379535, "lon": -174.81485544069233, "alt_km": 494.99472676597543, "timestamp": "2025-12-25T14:48:24.448909+00:00", "meta": {"OBJECT_NAME": "TIANMU-1 12", "OBJECT_ID": "2023-205B", "EPOCH": "2025-12-25T07:26:50.337312", "MEAN_MOTION": 15.24635232, "ECCENTRICITY": 0.00060026, "INCLINATION": 97.3585, "RA_OF_ASC_NODE": 18.5138, "ARG_OF_PERICENTER": 234.2247, "MEAN_ANOMALY": 125.8433, "EPHEMERIS_TYPE": 0, "CLASSIFICATION_TYPE": "U", "NORAD_CAT_ID": 58646, "ELEMENT_SET_NO": 999, "REV_AT_EPOCH": 11099, "BSTAR": 0.00025795392, "MEAN_MOTION_DOT": 6.299e-05, "MEAN_MOTION_DDOT": 0}, "tle": {"line1": "1 58646U 23205B   25359.31030483  .00006299  00000+0  25795-3 0  9993", "line2": "2 58646  97.3585  18.5138 0006002 234.2247 125.8433 15.24635232110995"}}, "geometry": {"type": "Point", "coordinates": [-174.81485544069233, -61.25935685379535]}}, {"type": "Feature", "properties": {"norad_id": 58647, "name": "TIANMU-1 13", "group": "weather", "lat": 59.153951751023826, "lon": 6.519542438502153, "alt_km": 490.0798624672734, "timestamp": "2025-12-25T14:48:24.448920+00:00", "meta": {"OBJECT_NAME": "TIANMU-1 13", "OBJECT_ID": "2023-205C", "EPOCH": "2025-12-25T08:14:38.214240", "MEAN_MOTION": 15.24678549, "ECCENTRICITY": 0.00066758, "INCLINATION": 97.3613, "RA_OF_ASC_NODE": 18.7529, "ARG_OF_PERICENTER": 212.3216, "MEAN_ANOMALY": 147.7614, "EPHEMERIS_TYPE": 0, "CLASSIFICATION_TYPE": "U", "NORAD_CAT_ID": 58647, "ELEMENT_SET_NO": 999, "REV_AT_EPOCH": 11099, "BSTAR": 0.00028401584, "MEAN_MOTION_DOT": 6.953e-05, "MEAN_MOTION_DDOT": 0}, "tle": {"line1": "1 58647U 23205C   25359.34349785  .00006953  00000+0  28402-3 0  9990", "line2": "2 58647  97.3613  18.7529 0006675 212.3216 147.7614 15.24678549110995"}}, "geometry": {"type": "Point", "coordinates": [6.519542438502153, 59.153951751023826]}}, {"type": "Feature", "properties": {"norad_id": 58648, "name": "TIANMU-1 14", "group": "weather", "lat": 29.38768240052195, "lon": -157.47005995611815, "alt_km": 488.483643576079, "timestamp": "2025-12-25T14:48:24.448930+00:00", "meta": {"OBJECT_NAME": "TIANMU-1 14", "OBJECT_ID": "2023-205D", "EPOCH": "2025-12-25T06:16:25.499136", "MEAN_MOTION": 15.24660798, "ECCENTRICITY": 0.00073643, "INCLINATION": 97.3545, "RA_OF_ASC_NODE": 18.0094, "ARG_OF_PERICENTER": 218.7104, "MEAN_ANOMALY": 141.3607, "EPHEMERIS_TYPE": 0, "CLASSIFICATION_TYPE": "U", "NORAD_CAT_ID": 58648, "ELEMENT_SET_NO": 999, "REV_AT_EPOCH": 11098, "BSTAR": 0.00027733921, "MEAN_MOTION_DOT": 6.785e-05, "MEAN_MOTION_DDOT": 0}, "tle": {"line1": "1 58648U 23205D   25359.26140624  .00006785  00000+0  27734-3 0  9993", "line2": "2 58648  97.3545  18.0094 0007364 218.7104 141.3607 15.24660798110980"}}, "geometry": {"type": "Point", "coordinates": [-157.47005995611815, 29.38768240052195]}}, {"type": "Feature", "properties": {"norad_id": 58660, "name": "TIANMU-1 19", "group": "weather", "lat": -21.600157484669086, "lon": -72.33495749569015, "alt_km": 483.66940046595755, "timestamp": "2025-12-25T14:48:24.448940+00:00", "meta": {"OBJECT_NAME": "TIANMU-1 19", "OBJECT_ID": "2023-208A", "EPOCH": "2025-12-25T07:38:25.470240", "MEAN_MOTION": 15.28076761, "ECCENTRICITY": 0.00048088, "INCLINATION": 97.4388, "RA_OF_ASC_NODE": 110.3323, "ARG_OF_PERICENTER": 199.5507, "MEAN_ANOMALY": 160.5549, "EPHEMERIS_TYPE": 0, "CLASSIFICATION_TYPE": "U", "NORAD_CAT_ID": 58660, "ELEMENT_SET_NO": 999, "REV_AT_EPOCH": 11074, "BSTAR": 0.00038355608, "MEAN_MOTION_DOT": 0.00010434, "MEAN_MOTION_DDOT": 0}, "tle": {"line1": "1 58660U 23208A   25359.31835035  .00010434  00000+0  38356-3 0  9991", "line2": "2 58660  97.4388 110.3323 0004808 199.5507 160.5549 15.28076761110741"}}, "geometry": {"type": "Point", "coordinates": [-72.33495749569015, -21.600157484669086]}}, {"type": "Feature", "properties": {"norad_id": 58661, "name": "TIANMU-1 20", "group": "weather", "lat": -28.77458167766366, "lon": 115.20169330106773, "alt_km": 486.1534854648753, "timestamp": "2025-12-25T14:48:24.448950+00:00", "meta": {"OBJECT_NAME": "TIANMU-1 20", "OBJECT_ID": "2023-208B", "EPOCH": "2025-12-25T07:04:54.107616", "MEAN_MOTION": 15.29266781, "ECCENTRICITY": 0.00068213, "INCLINATION": 97.4326, "RA_OF_ASC_NODE": 110.7688, "ARG_OF_PERICENTER": 213.99, "MEAN_ANOMALY": 146.0904, "EPHEMERIS_TYPE": 0, "CLASSIFICATION_TYPE": "U", "NORAD_CAT_ID": 58661, "ELEMENT_SET_NO": 999, "REV_AT_EPOCH": 11081, "BSTAR": 0.00036292, "MEAN_MOTION_DOT": 0.00010238, "MEAN_MOTION_DDOT": 0}, "tle": {"line1": "1 58661U 23208B   25359.29507069  .00010238  00000+0  36292-3 0  9991", "line2": "2 58661  97.4326 110.7688 0006821 213.9900 146.0904 15.29266781110813"}}, "geometry": {"type": "Point", "coordinates": [115.20169330106773, -28.77458167766366]}}]}